[{"OBJECT_NAME":"FLOCK 4G-28","OBJECT_ID":"2025-009AB","EPOCH":"2026-03-09T04:28:42.447360","MEAN_MOTION":15.33074282,"ECCENTRICITY":9.115e-5,"INCLINATION":97.4053,"RA_OF_ASC_NODE":152.4797,"ARG_OF_PERICENTER":349.2155,"MEAN_ANOMALY":10.9068,"EPHEMERIS_TYPE":0,"CLASSIFICATION_TYPE":"U","NORAD_CAT_ID":62634,"ELEMENT_SET_NO":999,"REV_AT_EPOCH":6375,"BSTAR":0.00037255428,"MEAN_MOTION_DOT":0.0001183,"MEAN_MOTION_DDOT":0},{"OBJECT_NAME":"STARLINK-36737","OBJECT_ID":"2026-026V","EPOCH":"2026-03-09T22:00:01.999584","MEAN_MOTION":15.4917276,"ECCENTRICITY":0.00017552,"INCLINATION":97.284,"RA_OF_ASC_NODE":123.5348,"ARG_OF_PERICENTER":84.3492,"MEAN_ANOMALY":200.632,"EPHEMERIS_TYPE":0,"CLASSIFICATION_TYPE":"U","NORAD_CAT_ID":67740,"ELEMENT_SET_NO":999,"REV_AT_EPOCH":535,"BSTAR":-0.038918672,"MEAN_MOTION_DOT":-0.01901921,"MEAN_MOTION_DDOT":0}]
